stk.v.8.0

BEGIN Ephemeris

NumberOfEphemerisPoints 23370
CoordinateSystem Custom RIC Satellite/Origin

EphemerisTimePosVel

12211.000000 85.319960 -107.357961 0.162302 -0.169695 0.000076 0.048381
12212.000000 85.271580 -107.527656 0.162226 -0.169591 0.000077 0.048450
12213.000000 85.223129 -107.697246 0.162149 -0.169487 0.000077 0.048520
12214.000000 85.174609 -107.866733 0.162072 -0.169383 0.000077 0.048589
12215.000000 85.126020 -108.036116 0.161995 -0.169279 0.000077 0.048659
12216.000000 85.077361 -108.205395 0.161918 -0.169175 0.000077 0.048729
12217.000000 85.028632 -108.374571 0.161840 -0.169071 0.000078 0.048798
12218.000000 84.979834 -108.543642 0.161763 -0.168968 0.000078 0.048868
12219.000000 84.930966 -108.712610 0.161685 -0.168862 0.000078 0.048937
12220.000000 84.882030 -108.881472 0.161607 -0.168757 0.000078 0.049006
12221.000000 84.833024 -109.050229 0.161529 -0.168651 0.000078 0.049075
12222.000000 84.783949 -109.218880 0.161450 -0.168546 0.000079 0.049144
12223.000000 84.734805 -109.387426 0.161372 -0.168441 0.000079 0.049213
12224.000000 84.685592 -109.555867 0.161293 -0.168335 0.000079 0.049282
12225.000000 84.636311 -109.724202 0.161214 -0.168230 0.000079 0.049351
12226.000000 84.586960 -109.892432 0.161135 -0.168125 0.000079 0.049420
12227.000000 84.537540 -110.060557 0.161056 -0.168019 0.000080 0.049489
12228.000000 84.488051 -110.228576 0.160976 -0.167914 0.000080 0.049558
12229.000000 84.438493 -110.396490 0.160896 -0.167807 0.000080 0.049626
12230.000000 84.388867 -110.564297 0.160817 -0.167700 0.000080 0.049695
12231.000000 84.339172 -110.731998 0.160737 -0.167593 0.000080 0.049763
12232.000000 84.289408 -110.899591 0.160656 -0.167487 0.000080 0.049832
12233.000000 84.239576 -111.067078 0.160576 -0.167380 0.000081 0.049900
12234.000000 84.189676 -111.234457 0.160495 -0.167273 0.000081 0.049969
12235.000000 84.139707 -111.401730 0.160414 -0.167166 0.000081 0.050037
12236.000000 84.089670 -111.568896 0.160333 -0.167059 0.000081 0.050106
12237.000000 84.039564 -111.735955 0.160252 -0.166952 0.000081 0.050174
12238.000000 83.989390 -111.902908 0.160171 -0.166845 0.000082 0.050243
12239.000000 83.939147 -112.069753 0.160089 -0.166737 0.000082 0.050311
12240.000000 83.888837 -112.236490 0.160008 -0.166629 0.000082 0.050379
12241.000000 83.838458 -112.403119 0.159926 -0.166521 0.000082 0.050447
12242.000000 83.788012 -112.569640 0.159844 -0.166412 0.000082 0.050514
12243.000000 83.737497 -112.736052 0.159761 -0.166304 0.000082 0.050582
12244.000000 83.686915 -112.902356 0.159679 -0.166196 0.000083 0.050650
12245.000000 83.636264 -113.068551 0.159596 -0.166087 0.000083 0.050718
12246.000000 83.585546 -113.234638 0.159513 -0.165979 0.000083 0.050786
12247.000000 83.534760 -113.400617 0.159430 -0.165871 0.000083 0.050854
12248.000000 83.483906 -113.566488 0.159347 -0.165762 0.000083 0.050922
12249.000000 83.432984 -113.732250 0.159263 -0.165652 0.000084 0.050989
12250.000000 83.381995 -113.897903 0.159180 -0.165543 0.000084 0.051057
12251.000000 83.330938 -114.063445 0.159096 -0.165433 0.000084 0.051124
12252.000000 83.279814 -114.228878 0.159012 -0.165323 0.000084 0.051191
12253.000000 83.228622 -114.394201 0.158928 -0.165213 0.000084 0.051259
12254.000000 83.177364 -114.559415 0.158844 -0.165104 0.000085 0.051326
12255.000000 83.126037 -114.724518 0.158759 -0.164994 0.000085 0.051394
12256.000000 83.074644 -114.889512 0.158674 -0.164884 0.000085 0.051461
12257.000000 83.023183 -115.054396 0.158589 -0.164774 0.000085 0.051528
12258.000000 82.971655 -115.219170 0.158504 -0.164664 0.000085 0.051596
12259.000000 82.920059 -115.383834 0.158419 -0.164553 0.000085 0.051662
12260.000000 82.868397 -115.548387 0.158334 -0.164442 0.000086 0.051729
12261.000000 82.816667 -115.712829 0.158248 -0.164331 0.000086 0.051796
12262.000000 82.764871 -115.877160 0.158162 -0.164219 0.000086 0.051863
12263.000000 82.713009 -116.041379 0.158076 -0.164108 0.000086 0.051930
12264.000000 82.661079 -116.205487 0.157990 -0.163997 0.000086 0.051996
12265.000000 82.609082 -116.369484 0.157904 -0.163886 0.000087 0.052063
12266.000000 82.557019 -116.533370 0.157817 -0.163774 0.000087 0.052130
12267.000000 82.504889 -116.697144 0.157730 -0.163663 0.000087 0.052197
12268.000000 82.452692 -116.860807 0.157643 -0.163552 0.000087 0.052264
12269.000000 82.400429 -117.024359 0.157556 -0.163439 0.000087 0.052330
12270.000000 82.348099 -117.187799 0.157469 -0.163327 0.000087 0.052396
12271.000000 82.295703 -117.351125 0.157382 -0.163214 0.000088 0.052462
12272.000000 82.243240 -117.514339 0.157294 -0.163101 0.000088 0.052529
12273.000000 82.190712 -117.677440 0.157206 -0.162989 0.000088 0.052595
12274.000000 82.138117 -117.840429 0.157118 -0.162876 0.000088 0.052661
12275.000000 82.085456 -118.003305 0.157030 -0.162763 0.000088 0.052727
12276.000000 82.032729 -118.166068 0.156942 -0.162650 0.000089 0.052793
12277.000000 81.979936 -118.328718 0.156853 -0.162538 0.000089 0.052860
12278.000000 81.927076 -118.491256 0.156764 -0.162425 0.000089 0.052926
12279.000000 81.874150 -118.653681 0.156675 -0.162311 0.000089 0.052991
12280.000000 81.821159 -118.815992 0.156586 -0.162197 0.000089 0.053057
12281.000000 81.768102 -118.978189 0.156497 -0.162083 0.000089 0.053123
12282.000000 81.714979 -119.140272 0.156407 -0.161969 0.000090 0.053188
12283.000000 81.661790 -119.302241 0.156318 -0.161855 0.000090 0.053254
12284.000000 81.608536 -119.464095 0.156228 -0.161740 0.000090 0.053320
12285.000000 81.555217 -119.625836 0.156138 -0.161626 0.000090 0.053385
12286.000000 81.501831 -119.787462 0.156048 -0.161512 0.000090 0.053451
12287.000000 81.448380 -119.948974 0.155957 -0.161398 0.000091 0.053517
12288.000000 81.394864 -120.110373 0.155867 -0.161284 0.000091 0.053582
12289.000000 81.341282 -120.271657 0.155776 -0.161169 0.000091 0.053647
12290.000000 81.287634 -120.432825 0.155685 -0.161053 0.000091 0.053712
12291.000000 81.233922 -120.593878 0.155594 -0.160937 0.000091 0.053777
12292.000000 81.180145 -120.754816 0.155503 -0.160822 0.000091 0.053842
12293.000000 81.126302 -120.915638 0.155411 -0.160706 0.000092 0.053907
12294.000000 81.072395 -121.076344 0.155319 -0.160591 0.000092 0.053972
12295.000000 81.018422 -121.236935 0.155228 -0.160475 0.000092 0.054038
12296.000000 80.964385 -121.397410 0.155136 -0.160360 0.000092 0.054103
12297.000000 80.910282 -121.557770 0.155043 -0.160244 0.000092 0.054168
12298.000000 80.856115 -121.718014 0.154951 -0.160129 0.000093 0.054233
12299.000000 80.801882 -121.878143 0.154858 -0.160012 0.000093 0.054297
12300.000000 80.747585 -122.038155 0.154766 -0.159895 0.000093 0.054362
12301.000000 80.693223 -122.198050 0.154673 -0.159778 0.000093 0.054426
12302.000000 80.638797 -122.357828 0.154580 -0.159661 0.000093 0.054490
12303.000000 80.584307 -122.517489 0.154486 -0.159544 0.000093 0.054555
12304.000000 80.529752 -122.677033 0.154393 -0.159427 0.000094 0.054619
12305.000000 80.475133 -122.836461 0.154299 -0.159310 0.000094 0.054684
12306.000000 80.420449 -122.995771 0.154206 -0.159193 0.000094 0.054748
12307.000000 80.365701 -123.154964 0.154112 -0.159076 0.000094 0.054813
12308.000000 80.310888 -123.314041 0.154017 -0.158960 0.000094 0.054877
12309.000000 80.256011 -123.473000 0.153923 -0.158841 0.000095 0.054941
12310.000000 80.201070 -123.631842 0.153828 -0.158723 0.000095 0.055005
12311.000000 80.146065 -123.790564 0.153734 -0.158605 0.000095 0.055069
12312.000000 80.090996 -123.949169 0.153639 -0.158486 0.000095 0.055132
12313.000000 80.035864 -124.107655 0.153544 -0.158368 0.000095 0.055196
12314.000000 79.980667 -124.266023 0.153449 -0.158250 0.000095 0.055260
12315.000000 79.925407 -124.424273 0.153353 -0.158131 0.000096 0.055324
12316.000000 79.870083 -124.582404 0.153258 -0.158013 0.000096 0.055388
12317.000000 79.814696 -124.740417 0.153162 -0.157895 0.000096 0.055452
12318.000000 79.759244 -124.898312 0.153066 -0.157776 0.000096 0.055516
12319.000000 79.703728 -125.056088 0.152970 -0.157657 0.000096 0.055579
12320.000000 79.648150 -125.213745 0.152873 -0.157537 0.000096 0.055642
12321.000000 79.592508 -125.371282 0.152777 -0.157417 0.000097 0.055705
12322.000000 79.536802 -125.528699 0.152680 -0.157298 0.000097 0.055768
12323.000000 79.481034 -125.685997 0.152583 -0.157178 0.000097 0.055832
12324.000000 79.425202 -125.843175 0.152486 -0.157058 0.000097 0.055895
12325.000000 79.369308 -126.000233 0.152389 -0.156939 0.000097 0.055958
12326.000000 79.313350 -126.157171 0.152292 -0.156819 0.000098 0.056021
12327.000000 79.257328 -126.313990 0.152194 -0.156699 0.000098 0.056085
12328.000000 79.201244 -126.470689 0.152096 -0.156579 0.000098 0.056148
12329.000000 79.145096 -126.627269 0.151998 -0.156458 0.000098 0.056210
12330.000000 79.088886 -126.783727 0.151900 -0.156337 0.000098 0.056273
12331.000000 79.032613 -126.940065 0.151802 -0.156216 0.000098 0.056336
12332.000000 78.976277 -127.096281 0.151704 -0.156095 0.000099 0.056398
12333.000000 78.919879 -127.252376 0.151605 -0.155974 0.000099 0.056461
12334.000000 78.863418 -127.408350 0.151506 -0.155853 0.000099 0.056523
12335.000000 78.806895 -127.564203 0.151407 -0.155732 0.000099 0.056586
12336.000000 78.750309 -127.719936 0.151308 -0.155611 0.000099 0.056649
12337.000000 78.693661 -127.875547 0.151209 -0.155490 0.000100 0.056711
12338.000000 78.636950 -128.031037 0.151109 -0.155369 0.000100 0.056774
12339.000000 78.580176 -128.186405 0.151010 -0.155246 0.000100 0.056836
12340.000000 78.523340 -128.341652 0.150910 -0.155124 0.000100 0.056898
12341.000000 78.466443 -128.496776 0.150810 -0.155002 0.000100 0.056960
12342.000000 78.409483 -128.651778 0.150710 -0.154879 0.000100 0.057022
12343.000000 78.352461 -128.806657 0.150609 -0.154757 0.000101 0.057084
12344.000000 78.295378 -128.961414 0.150509 -0.154634 0.000101 0.057146
END Ephemeris